OBJECT_NAME,OBJECT_ID,EPOCH,MEAN_MOTION,ECCENTRICITY,INCLINATION,RA_OF_ASC_NODE,ARG_OF_PERICENTER,MEAN_ANOMALY,EPHEMERIS_TYPE,CLASSIFICATION_TYPE,NORAD_CAT_ID,ELEMENT_SET_NO,REV_AT_EPOCH,BSTAR,MEAN_MOTION_DOT,MEAN_MOTION_DDOT
SWARM A,2013-067B,2026-07-11T03:41:35.916288,15.51406223,.0003328,87.3308,47.3312,95.1372,265.0269,0,U,39452,999,70996,.11013E-3,.6526E-4,0
SWARM C,2013-067C,2026-07-11T03:41:27.710016,15.51405384,.00033,87.3307,45.9120,95.0339,265.1299,0,U,39453,999,70992,.11128E-3,.6594E-4,0
BRITE-CA1 (TORONTO),2014-033L,2026-07-09T04:30:04.468608,14.72715027,.00780057,97.9764,318.7133,205.5751,154.1590,0,U,40020,999,64545,.1176575E-3,.733E-5,0
OCO 2,2014-035A,2026-07-11T02:54:14.667840,14.57130301,.0001469,98.2021,133.0503,81.8285,278.3080,0,U,40059,999,63953,.52811E-4,.193E-5,0
BRITE-PL2 (HEWELIUSZ),2014-049B,2026-07-11T00:07:58.618848,14.94679368,.0014696,97.9116,304.1924,35.8483,324.3720,0,U,40119,999,64500,.11136E-3,.115E-4,0
MMS 1,2015-011A,2026-07-11T06:00:00.998784,0.28375260,.8304001,72.4831,348.4765,167.9733,233.1178,0,U,40482,999,134,0,-.1099E-4,0
MMS 2,2015-011B,2026-07-11T06:00:00.998784,0.28375224,.8306817,72.4871,348.4755,167.9762,233.1058,0,U,40483,999,134,0,-.11E-4,0
MMS 3,2015-011C,2026-07-11T06:00:00.998784,0.28375220,.8305182,72.4868,348.4874,167.9839,233.0799,0,U,40484,999,131,0,-.1099E-4,0
MMS 4,2015-011D,2026-07-11T06:00:00.998784,0.28375242,.8305128,72.4825,348.4708,167.9938,233.0744,0,U,40485,999,137,0,-.1099E-4,0
ASTROSAT,2015-052A,2026-07-10T21:44:35.553984,14.82548208,.0007867,5.9979,344.6185,9.4837,350.5439,0,U,40930,999,58335,.66131E-4,.1214E-4,0
DAMPE,2015-078A,2026-07-11T03:47:28.639968,15.30845770,.0012022,97.4567,197.7435,0.0397,0.0843,0,U,41173,999,58821,.20608E-4,.537E-5,0
PISAT,2016-059B,2026-07-10T21:59:06.554112,14.69024780,.0030251,97.8188,191.3501,127.9102,232.4846,0,U,41784,999,52322,.9409E-4,.508E-5,0
HXMT (HUIYAN),2017-034A,2026-07-11T01:50:00.253248,15.18665979,.0032645,43.0149,50.0015,295.6331,64.1146,0,U,42758,999,50129,.15309E-3,.3029E-4,0
FLYING LAPTOP,2017-042G,2026-07-11T04:20:42.203328,15.01295902,.0019867,97.4788,346.8083,45.1720,315.1115,0,U,42831,999,49005,.17532E-3,.2206E-4,0
ZHANGHENG 1-01 (CSES-1),2018-015C,2026-07-11T05:14:51.066240,15.20574392,.0016033,97.6883,358.3596,178.4247,181.7041,0,U,43194,999,46829,.19945E-3,.4308E-4,0
SALSAT,2020-068K,2026-07-10T10:17:36.763872,15.30129687,.00086995,97.8857,195.9138,210.5134,149.5600,0,U,46495,999,31891,.18731159E-3,.5381E-4,0
IXPE,2021-121A,2026-07-11T04:00:01.998720,15.10466317,.0007218,0.2283,135.5941,84.9537,296.0005,0,U,49954,999,587,.42513E-3,.8136E-4,0
