SWARM A                 
1 39452U 13067B   26192.15388792  .00006526  00000+0  11013-3 0  9990
2 39452  87.3308  47.3312 0003328  95.1372 265.0269 15.51406223709967
SWARM C                 
1 39453U 13067C   26192.15379294  .00006594  00000+0  11128-3 0  9990
2 39453  87.3307  45.9120 0003300  95.0339 265.1299 15.51405384709927
BRITE-CA1 (TORONTO)     
1 40020U 14033L   26190.18755172  .00000733  00000+0  11766-3 0  9997
2 40020  97.9764 318.7133 0078005 205.5751 154.1590 14.72715027645456
OCO 2                   
1 40059U 14035A   26192.12100310  .00000193  00000+0  52811-4 0  9992
2 40059  98.2021 133.0503 0001469  81.8285 278.3080 14.57130301639538
BRITE-PL2 (HEWELIUSZ)   
1 40119U 14049B   26192.00553957  .00001150  00000+0  11136-3 0  9998
2 40119  97.9116 304.1924 0014696  35.8483 324.3720 14.94679368645003
MMS 1                   
1 40482U 15011A   26192.25001156 -.00001099  00000+0  00000+0 0  9994
2 40482  72.4831 348.4765 8304001 167.9733 233.1178  0.28375260  1340
MMS 2                   
1 40483U 15011B   26192.25001156 -.00001100  00000+0  00000+0 0  9998
2 40483  72.4871 348.4755 8306817 167.9762 233.1058  0.28375224  1340
MMS 3                   
1 40484U 15011C   26192.25001156 -.00001099  00000+0  00000+0 0  9996
2 40484  72.4868 348.4874 8305182 167.9839 233.0799  0.28375220  1312
MMS 4                   
1 40485U 15011D   26192.25001156 -.00001099  00000+0  00000+0 0  9997
2 40485  72.4825 348.4708 8305128 167.9938 233.0744  0.28375242  1372
ASTROSAT                
1 40930U 15052A   26191.90596706  .00001214  00000+0  66131-4 0  9998
2 40930   5.9979 344.6185 0007867   9.4837 350.5439 14.82548208583352
DAMPE                   
1 41173U 15078A   26192.15797037  .00000537  00000+0  20608-4 0  9990
2 41173  97.4567 197.7435 0012022   0.0397   0.0843 15.30845770588217
PISAT                   
1 41784U 16059B   26191.91604808  .00000508  00000+0  94090-4 0  9998
2 41784  97.8188 191.3501 0030251 127.9102 232.4846 14.69024780523224
HXMT (HUIYAN)           
1 42758U 17034A   26192.07639182  .00003029  00000+0  15309-3 0  9991
2 42758  43.0149  50.0015 0032645 295.6331  64.1146 15.18665979501295
FLYING LAPTOP           
1 42831U 17042G   26192.18104402  .00002206  00000+0  17532-3 0  9992
2 42831  97.4788 346.8083 0019867  45.1720 315.1115 15.01295902490054
ZHANGHENG 1-01 (CSES-1) 
1 43194U 18015C   26192.21864660  .00004308  00000+0  19945-3 0  9994
2 43194  97.6883 358.3596 0016033 178.4247 181.7041 15.20574392468298
SALSAT                  
1 46495U 20068K   26191.42889773  .00005381  00000+0  18731-3 0  9990
2 46495  97.8857 195.9138 0008699 210.5134 149.5600 15.30129687318917
IXPE                    
1 49954U 21121A   26192.16668980  .00008136  00000+0  42513-3 0  9997
2 49954   0.2283 135.5941 0007218  84.9537 296.0005 15.10466317  5876
